{
  "type": "FeatureCollection",
  "features": [
    {
      "type": "Feature",
      "properties": {
        "name": "Ventnor City",
        "mun_label": "Ventnor City",
        "county": "ATLANTIC",
        "source_crs": "EPSG:3857 / WGS 1984 Web Mercator Auxiliary Sphere",
        "converted_to": "EPSG:4326"
      },
      "geometry": {
        "type": "Polygon",
        "coordinates": [
          [
            [
              -74.4914414295997,
              39.35300605971868
            ],
            [
              -74.49086568046948,
              39.35298473678685
            ],
            [
              -74.49007055376374,
              39.35300595066245
            ],
            [
              -74.4893850727266,
              39.35317620463148
            ],
            [
              -74.48867685263471,
              39.35353560222801
            ],
            [
              -74.48867214815758,
              39.35353799102803
            ],
            [
              -74.4878220544379,
              39.35417652080677
            ],
            [
              -74.48691717875727,
              39.35472984132317
            ],
            [
              -74.48571417020013,
              39.35551608946541
            ],
            [
              -74.48535408680671,
              39.35575140386435
            ],
            [
              -74.48401038321146,
              39.35656013065869
            ],
            [
              -74.48357702154534,
              39.35688296167557
            ],
            [
              -74.48272670055192,
              39.35751645781667
            ],
            [
              -74.48263918398199,
              39.35758168241225
            ],
            [
              -74.48192615431006,
              39.35804984812339
            ],
            [
              -74.48124057984815,
              39.35830519728751
            ],
            [
              -74.48036307583423,
              39.35849661860112
            ],
            [
              -74.47902515020287,
              39.35853877836719
            ],
            [
              -74.47901949081658,
              39.358538968679596
            ],
            [
              -74.47785996880404,
              39.35844562107944
            ],
            [
              -74.47742915745502,
              39.35841094318796
            ],
            [
              -74.47653927555481,
              39.35829562051258
            ],
            [
              -74.47602181990001,
              39.35766900569033
            ],
            [
              -74.47570808328703,
              39.35727905449964
            ],
            [
              -74.475620637684,
              39.35717036184791
            ],
            [
              -74.47543327965846,
              39.356937484671185
            ],
            [
              -74.47533960154401,
              39.35682104683359
            ],
            [
              -74.47507006383962,
              39.35648601295317
            ],
            [
              -74.47496489267944,
              39.356355290069445
            ],
            [
              -74.47485248109803,
              39.35621555944798
            ],
            [
              -74.47465366685766,
              39.355968432223925
            ],
            [
              -74.47399921902036,
              39.35515494331806
            ],
            [
              -74.47374337343756,
              39.354836915863096
            ],
            [
              -74.47361594382124,
              39.35467851666919
            ],
            [
              -74.47350356278257,
              39.35453882228684
            ],
            [
              -74.46777138151354,
              39.34741250178689
            ],
            [
              -74.46728391162296,
              39.3468063923982
            ],
            [
              -74.46543090638075,
              39.34450227136789
            ],
            [
              -74.46440512824265,
              39.34322670969925
            ],
            [
              -74.46402926144968,
              39.34275929848365
            ],
            [
              -74.46413077107678,
              39.34271701248157
            ],
            [
              -74.46431753711254,
              39.34262751129872
            ],
            [
              -74.46447684793829,
              39.34255079302974
            ],
            [
              -74.46471855673347,
              39.34246131525485
            ],
            [
              -74.46518549023838,
              39.34225248586135
            ],
            [
              -74.46553155093022,
              39.342133177226955
            ],
            [
              -74.46575680528436,
              39.34200103940966
            ],
            [
              -74.46628414510222,
              39.341800762245924
            ],
            [
              -74.46663573582295,
              39.34163453783626
            ],
            [
              -74.46691586556283,
              39.34153653651552
            ],
            [
              -74.46716855895733,
              39.34140866536498
            ],
            [
              -74.46748718420208,
              39.34122537644412
            ],
            [
              -74.46786622114969,
              39.34104637222801
            ],
            [
              -74.46808045587022,
              39.34096966403428
            ],
            [
              -74.46816284126325,
              39.340927042081965
            ],
            [
              -74.46838806776958,
              39.340833283977766
            ],
            [
              -74.46862976129343,
              39.34072672918783
            ],
            [
              -74.46889344557539,
              39.340603126484005
            ],
            [
              -74.46914612729176,
              39.34048805162141
            ],
            [
              -74.46947570389815,
              39.340360195921654
            ],
            [
              -74.46967894503624,
              39.34026216849789
            ],
            [
              -74.46977783068441,
              39.340206748764345
            ],
            [
              -74.46993713701856,
              39.340117231166865
            ],
            [
              -74.47018432733363,
              39.340002152725354
            ],
            [
              -74.47043701084662,
              39.33987428363121
            ],
            [
              -74.4707226463609,
              39.3397549431472
            ],
            [
              -74.47089841342432,
              39.339686759609506
            ],
            [
              -74.47105770718208,
              39.33959297066179
            ],
            [
              -74.47128293009517,
              39.33948641537072
            ],
            [
              -74.47150265891197,
              39.33939691074598
            ],
            [
              -74.47184872858696,
              39.339226407134014
            ],
            [
              -74.47217829531189,
              39.339068699971996
            ],
            [
              -74.47248041670825,
              39.33892803783927
            ],
            [
              -74.47277703502517,
              39.338740457782045
            ],
            [
              -74.47326590449099,
              39.33852307924686
            ],
            [
              -74.47344167874095,
              39.33842502909852
            ],
            [
              -74.47367786379546,
              39.33833126277497
            ],
            [
              -74.4739854685083,
              39.33815648440218
            ],
            [
              -74.47421616216147,
              39.33807124676787
            ],
            [
              -74.47433700712675,
              39.33799877552118
            ],
            [
              -74.47458418127214,
              39.337892208767926
            ],
            [
              -74.47479839712804,
              39.33778564393657
            ],
            [
              -74.47487530100119,
              39.337738746466165
            ],
            [
              -74.4750016301813,
              39.33770038987019
            ],
            [
              -74.47514994652627,
              39.337589540738904
            ],
            [
              -74.47539161040571,
              39.33750430171854
            ],
            [
              -74.4755728769553,
              39.33740198974478
            ],
            [
              -74.47582005379563,
              39.33727836865605
            ],
            [
              -74.47613863592123,
              39.33709506473643
            ],
            [
              -74.47635284369231,
              39.33703539318974
            ],
            [
              -74.47655058175096,
              39.336928812461814
            ],
            [
              -74.47675380671937,
              39.33682224199314
            ],
            [
              -74.47707788563622,
              39.33663040556902
            ],
            [
              -74.47726462921412,
              39.33654514384071
            ],
            [
              -74.47752277807732,
              39.336442843664265
            ],
            [
              -74.47776994054459,
              39.33633627106525
            ],
            [
              -74.47824228909401,
              39.33614019784676
            ],
            [
              -74.47852239907097,
              39.33602082944936
            ],
            [
              -74.47879369118509,
              39.33589700790155
            ],
            [
              -74.47917189000454,
              39.33577545742613
            ],
            [
              -74.47939930211197,
              39.33567729920432
            ],
            [
              -74.47961876862072,
              39.33557377143758
            ],
            [
              -74.48015780091032,
              39.33531740330505
            ],
            [
              -74.48046213575556,
              39.33519759160822
            ],
            [
              -74.48095851244219,
              39.33501246601347
            ],
            [
              -74.48135586963171,
              39.334827070343614
            ],
            [
              -74.48183090953374,
              39.33464189304673
            ],
            [
              -74.4821848457557,
              39.33450020480533
            ],
            [
              -74.48261036602767,
              39.334342346629434
            ],
            [
              -74.4829430831443,
              39.33419520280595
            ],
            [
              -74.48321290920786,
              39.334086225503995
            ],
            [
              -74.4835032033852,
              39.333938865748756
            ],
            [
              -74.48372973514365,
              39.3338407000847
            ],
            [
              -74.48404929733124,
              39.33367698518928
            ],
            [
              -74.48435461134012,
              39.33352974338563
            ],
            [
              -74.48461671907879,
              39.33340999671774
            ],
            [
              -74.48477227404831,
              39.333338888742176
            ],
            [
              -74.48526144714471,
              39.33314821353702
            ],
            [
              -74.48558820663438,
              39.33292967115136
            ],
            [
              -74.4857863192905,
              39.3328533695571
            ],
            [
              -74.48608454469344,
              39.33273354321535
            ],
            [
              -74.48638884091112,
              39.33264117350606
            ],
            [
              -74.48656573266528,
              39.33258129804718
            ],
            [
              -74.48671547463664,
              39.33244450835184
            ],
            [
              -74.48706243813535,
              39.33225345758284
            ],
            [
              -74.48732529596725,
              39.33211152686819
            ],
            [
              -74.48770042793832,
              39.331937007405905
            ],
            [
              -74.4879278139946,
              39.33185530029385
            ],
            [
              -74.48823210751732,
              39.331741008704476
            ],
            [
              -74.4889126253625,
              39.3314081517212
            ],
            [
              -74.48911173335196,
              39.33129890186645
            ],
            [
              -74.48932421905263,
              39.33115687124132
            ],
            [
              -74.489551602414,
              39.33106422498583
            ],
            [
              -74.4897994502958,
              39.33093326902259
            ],
            [
              -74.49012494585588,
              39.33078597697085
            ],
            [
              -74.49055773170188,
              39.33055121568172
            ],
            [
              -74.4906359273524,
              39.33051062815014
            ],
            [
              -74.49099221626209,
              39.330951141828635
            ],
            [
              -74.49149509495477,
              39.33157288639383
            ],
            [
              -74.4916452591343,
              39.33175831292742
            ],
            [
              -74.49249666978417,
              39.33280983243348
            ],
            [
              -74.49273199964252,
              39.33310816669599
            ],
            [
              -74.4928403149062,
              39.33324276640288
            ],
            [
              -74.49332646786662,
              39.333851486412286
            ],
            [
              -74.49376762421444,
              39.33440416257617
            ],
            [
              -74.49384614236017,
              39.33450248933977
            ],
            [
              -74.4944664084026,
              39.33526093466885
            ],
            [
              -74.49456069557482,
              39.33537524134856
            ],
            [
              -74.49463822557372,
              39.335469257596145
            ],
            [
              -74.4949651449635,
              39.33580778632696
            ],
            [
              -74.49526693038993,
              39.33613006150428
            ],
            [
              -74.49570851074257,
              39.33658734464347
            ],
            [
              -74.49602133466723,
              39.33691126425913
            ],
            [
              -74.49659137410549,
              39.33751019762055
            ],
            [
              -74.49665985896782,
              39.3375827402412
            ],
            [
              -74.49677780596798,
              39.337707618339635
            ],
            [
              -74.49736677560423,
              39.33832395586075
            ],
            [
              -74.49760440874297,
              39.33857618048077
            ],
            [
              -74.50061427698449,
              39.34171451890613
            ],
            [
              -74.50138199159935,
              39.342554909998086
            ],
            [
              -74.50138372355121,
              39.34255680452596
            ],
            [
              -74.50197920956651,
              39.34317103248948
            ],
            [
              -74.50359772218023,
              39.344840416643734
            ],
            [
              -74.50363356136681,
              39.34487738129804
            ],
            [
              -74.50385691488577,
              39.34484755406296
            ],
            [
              -74.5040798237387,
              39.344816240141704
            ],
            [
              -74.50430228792555,
              39.34478344022696
            ],
            [
              -74.50452430744633,
              39.34474915362193
            ],
            [
              -74.50474588319938,
              39.34471338171387
            ],
            [
              -74.50496701338804,
              39.344676123111064
            ],
            [
              -74.50518769980894,
              39.344637378505844
            ],
            [
              -74.50540794156379,
              39.344597147201085
            ],
            [
              -74.50553660187202,
              39.34457291781695
            ],
            [
              -74.50566510946668,
              39.34454817989677
            ],
            [
              -74.50579346524606,
              39.34452293344004
            ],
            [
              -74.50592166831183,
              39.34449717775145
            ],
            [
              -74.50604971956231,
              39.344470913525186
            ],
            [
              -74.50617761809922,
              39.34444414006591
            ],
            [
              -74.5063053648208,
              39.3444168580678
            ],
            [
              -74.50643295972715,
              39.34438906683554
            ],
            [
              -74.50637389909048,
              39.34443777303998
            ],
            [
              -74.50631578078654,
              39.344486962728986
            ],
            [
              -74.50625860481533,
              39.344536635206865
            ],
            [
              -74.50620237027854,
              39.344586790472505
            ],
            [
              -74.5061470780745,
              39.34463742852492
            ],
            [
              -74.50609272820317,
              39.344688550057754
            ],
            [
              -74.50603932066458,
              39.34474015437528
            ],
            [
              -74.50598685456042,
              39.34479224147638
            ],
            [
              -74.50593533078899,
              39.34484481205473
            ],
            [
              -74.50588474935029,
              39.344897865414445
            ],
            [
              -74.50583510934598,
              39.344951401554496
            ],
            [
              -74.50578641167445,
              39.34500542116843
            ],
            [
              -74.50573865633561,
              39.345059923560484
            ],
            [
              -74.50569184332954,
              39.34511490872952
            ],
            [
              -74.50564597175789,
              39.34517037736906
            ],
            [
              -74.50560104251893,
              39.34522632878325
            ],
            [
              -74.50555334916386,
              39.34528823514305
            ],
            [
              -74.50550207242912,
              39.3453579971369
            ],
            [
              -74.50545199764026,
              39.34542848571852
            ],
            [
              -74.50534558141507,
              39.345580832818165
            ],
            [
              -74.50523112347145,
              39.34574035025929
            ],
            [
              -74.50518753631556,
              39.345802445121464
            ],
            [
              -74.50516415406703,
              39.34583691322037
            ],
            [
              -74.50514288914762,
              39.345869301380276
            ],
            [
              -74.50512332384073,
              39.345900242472375
            ],
            [
              -74.50510525692373,
              39.34593006022715
            ],
            [
              -74.50507457137194,
              39.34598277375164
            ],
            [
              -74.50504550099105,
              39.34603452716767
            ],
            [
              -74.50501798918715,
              39.34608541981873
            ],
            [
              -74.50499199823103,
              39.34613552534433
            ],
            [
              -74.50496748500355,
              39.346184923635896
            ],
            [
              -74.50494443602999,
              39.34623364595619
            ],
            [
              -74.50492283154742,
              39.346281735377445
            ],
            [
              -74.50490265448781,
              39.34632922524623
            ],
            [
              -74.50488386802027,
              39.34637621073665
            ],
            [
              -74.50486649190775,
              39.346422650168094
            ],
            [
              -74.50485051716704,
              39.34646856716114
            ],
            [
              -74.50483593661167,
              39.34651397838956
            ],
            [
              -74.50482274485172,
              39.346558904000176
            ],
            [
              -74.50481093919225,
              39.34660335580364
            ],
            [
              -74.50480051604002,
              39.34664734561067
            ],
            [
              -74.50479147180174,
              39.34669088453715
            ],
            [
              -74.50478715719343,
              39.346715061780124
            ],
            [
              -74.50478331959052,
              39.34674040609068
            ],
            [
              -74.50477991767055,
              39.346767175196845
            ],
            [
              -74.5047768876531,
              39.34679587413479
            ],
            [
              -74.50477244009413,
              39.34685002431362
            ],
            [
              -74.50476338238111,
              39.34698610711445
            ],
            [
              -74.50475998405439,
              39.34702452877829
            ],
            [
              -74.5047561347734,
              39.34705902128312
            ],
            [
              -74.50474803466449,
              39.34711915874263
            ],
            [
              -74.50473842808084,
              39.34718192205483
            ],
            [
              -74.50472721620777,
              39.3472479760244
            ],
            [
              -74.50471417356816,
              39.34731863984376
            ],
            [
              -74.5046882616638,
              39.347447886070725
            ],
            [
              -74.50462531761015,
              39.34774589180405
            ],
            [
              -74.5046104504922,
              39.347820229268635
            ],
            [
              -74.50459771956798,
              39.34788762197155
            ],
            [
              -74.50457067488806,
              39.34803258487034
            ],
            [
              -74.50453959587416,
              39.34819319360497
            ],
            [
              -74.50450731940602,
              39.34835576580839
            ],
            [
              -74.50441942554365,
              39.34879324666243
            ],
            [
              -74.5043707099058,
              39.34904343912074
            ],
            [
              -74.5043454950941,
              39.34917869864169
            ],
            [
              -74.50432289168492,
              39.3493051412436
            ],
            [
              -74.50430246130041,
              39.349425226075795
            ],
            [
              -74.50428399193818,
              39.34954020078079
            ],
            [
              -74.50426392626967,
              39.349674713971226
            ],
            [
              -74.50424637049407,
              39.349804223283826
            ],
            [
              -74.50423120603375,
              39.34992959845632
            ],
            [
              -74.50421836551507,
              39.350051416769396
            ],
            [
              -74.50420778425936,
              39.350170315934044
            ],
            [
              -74.50419944789351,
              39.35028649533048
            ],
            [
              -74.50419333665464,
              39.350400264787055
            ],
            [
              -74.50418943527136,
              39.350511863275216
            ],
            [
              -74.50418356118773,
              39.35069429704273
            ],
            [
              -74.50418209783211,
              39.35077965404534
            ],
            [
              -74.50418228558001,
              39.35082354119427
            ],
            [
              -74.50418325037063,
              39.350864574010686
            ],
            [
              -74.50418500927195,
              39.35090351244327
            ],
            [
              -74.50418758204692,
              39.35094074619199
            ],
            [
              -74.5041901134994,
              39.350967401156446
            ],
            [
              -74.50419343726594,
              39.350995154345846
            ],
            [
              -74.50419758568594,
              39.351024266250796
            ],
            [
              -74.50420262613298,
              39.35105522589996
            ],
            [
              -74.5042140697714,
              39.35111667349338
            ],
            [
              -74.5042384204038,
              39.35123547984715
            ],
            [
              -74.50424798117336,
              39.35128451193013
            ],
            [
              -74.50425685563006,
              39.35133567305769
            ],
            [
              -74.50426341961983,
              39.351381682683275
            ],
            [
              -74.5042757831331,
              39.35148848936053
            ],
            [
              -74.50428577239907,
              39.35159209983652
            ],
            [
              -74.50429342335033,
              39.35169290381796
            ],
            [
              -74.5042987575465,
              39.35179117222572
            ],
            [
              -74.50430056136358,
              39.35183946412986
            ],
            [
              -74.50430178846227,
              39.351887200985765
            ],
            [
              -74.50430243974084,
              39.35193440502286
            ],
            [
              -74.50430251609764,
              39.3519810943028
            ],
            [
              -74.50430201753267,
              39.352027288971044
            ],
            [
              -74.50430094224927,
              39.35207300222664
            ],
            [
              -74.5042992920441,
              39.35211824865785
            ],
            [
              -74.5042970651205,
              39.352163040769014
            ],
            [
              -74.5042911164767,
              39.35226203162869
            ],
            [
              -74.50428547146343,
              39.3523327716498
            ],
            [
              -74.50428213601879,
              39.352365556907195
            ],
            [
              -74.50427843765476,
              39.3523964985962
            ],
            [
              -74.5042743314556,
              39.35242599127011
            ],
            [
              -74.50426978508195,
              39.35245425582339
            ],
            [
              -74.50423400698081,
              39.35262357477604
            ],
            [
              -74.5041960792112,
              39.35279261268872
            ],
            [
              -74.5041560062647,
              39.35296135428165
            ],
            [
              -74.50411379263286,
              39.353129783580634
            ],
            [
              -74.50406944190897,
              39.353297883222304
            ],
            [
              -74.50402295768629,
              39.35346563723276
            ],
            [
              -74.50397434535466,
              39.35363303033291
            ],
            [
              -74.50392360850742,
              39.3538000458545
            ],
            [
              -74.50387075343274,
              39.35396666712941
            ],
            [
              -74.5038157846222,
              39.354132878878985
            ],
            [
              -74.50375870746568,
              39.35429866443537
            ],
            [
              -74.50369952645475,
              39.35446400852018
            ],
            [
              -74.50363824877597,
              39.35462889446589
            ],
            [
              -74.50357487981918,
              39.35479330699445
            ],
            [
              -74.50350942587264,
              39.354957229438526
            ],
            [
              -74.50344189232621,
              39.355120647214925
            ],
            [
              -74.50337228636641,
              39.35528354365673
            ],
            [
              -74.50330061517978,
              39.35544590348633
            ],
            [
              -74.50322688505453,
              39.35560771003703
            ],
            [
              -74.50315110317716,
              39.35576894942077
            ],
            [
              -74.50307327673421,
              39.35592960427646
            ],
            [
              -74.5029934138105,
              39.35608966071632
            ],
            [
              -74.50291152069425,
              39.35624910276876
            ],
            [
              -74.50282760726695,
              39.3564079137678
            ],
            [
              -74.50274168071508,
              39.3565660805205
            ],
            [
              -74.50265745197908,
              39.35671702735823
            ],
            [
              -74.50257138618834,
              39.35686735360333
            ],
            [
              -74.50248349142768,
              39.357017045367925
            ],
            [
              -74.50239377668026,
              39.3571660901537
            ],
            [
              -74.50230224823426,
              39.35731447337845
            ],
            [
              -74.50220891507288,
              39.357462182543976
            ],
            [
              -74.50211378528093,
              39.357609205152094
            ],
            [
              -74.50201686694325,
              39.35775552731561
            ],
            [
              -74.50191816994129,
              39.35790113653644
            ],
            [
              -74.5018177014616,
              39.35804601962219
            ],
            [
              -74.50171547228395,
              39.35819016338047
            ],
            [
              -74.50161148959486,
              39.35833355531344
            ],
            [
              -74.50150576327583,
              39.358476182923525
            ],
            [
              -74.50139830320828,
              39.35861803371317
            ],
            [
              -74.50046049798426,
              39.35808735589393
            ],
            [
              -74.50000152624771,
              39.3578442548125
            ],
            [
              -74.49843640679956,
              39.356843638300866
            ],
            [
              -74.49716420011777,
              39.3560302075132
            ],
            [
              -74.49713735666045,
              39.356013074612385
            ],
            [
              -74.49567233917936,
              39.35498834293679
            ],
            [
              -74.49478631015337,
              39.35436860775801
            ],
            [
              -74.49311384202875,
              39.35362348070229
            ],
            [
              -74.49275266718226,
              39.353461107607494
            ],
            [
              -74.49254582290156,
              39.35336812553978
            ],
            [
              -74.49207201638643,
              39.353155112366835
            ],
            [
              -74.49158614100544,
              39.353040281145645
            ],
            [
              -74.4914414295997,
              39.35300605971868
            ]
          ]
        ]
      }
    }
  ]
}